METHANESAT              
1 59101U 24043D   26085.29461379  .00003104  00000+0  26997-3 0  9994
2 59101  97.8294 216.0136 0009106 286.7043  73.3179 14.97686759112244
GOSAT-GW (IBUKI GW)     
1 64694U 25141A   26065.03170321  .00001373  00000+0  25032-3 0  9996
2 64694  98.0504   4.0681 0001432  83.7436 276.3932 14.67569112 36718
GHGSAT-C1               
1 46278U 20061G   26085.28980032  .00030804  00000+0  30643-3 0  9992
2 46278  97.2133 168.0422 0000895  52.3280 307.8062 15.65674073310485
GHGSAT-C12              
1 64529U 25135B   26085.30081772  .00003745  00000+0  17856-3 0  9999
2 64529  97.4633 200.9266 0006540 101.8680 258.3289 15.19700376 42231
GHGSAT-C13              
1 64548U 25135W   26085.27743418  .00003833  00000+0  17920-3 0  9998
2 64548  97.4661 201.3504 0002466  72.5972 287.5532 15.20378861 42253
GHGSAT-C2               
1 47509U 21006DA  26085.09244267  .00006792  00000+0  19121-3 0  9999
2 47509  97.2263 133.7878 0007014 104.8545 255.3477 15.36759765287084
GHGSAT-C3               
1 52737U 22057F   26085.32039490  .00007464  00000+0  23500-3 0  9994
2 52737  97.6461 228.0012 0007003  64.4364 295.7601 15.33216528212833
GHGSAT-C4               
1 52746U 22057Q   26085.34014177  .00007572  00000+0  23844-3 0  9992
2 52746  97.6386 226.9372 0006998  51.3337 308.8529 15.33204195212845
GHGSAT-C5               
1 52744U 22057N   26085.29285006  .00007617  00000+0  23991-3 0  9998
2 52744  97.6552 229.4502 0007934  59.8681 300.3346 15.33193389212832
GHGSAT-C6               
1 56204U 23054AC  26085.26078216  .00014674  00000+0  25898-3 0  9990
2 56204  97.3106 353.8092 0006711   2.5352 357.5933 15.50457338165599
GHGSAT-C7               
1 56209U 23054AH  26085.25000356  .00011322  00000+0  21772-3 0  9998
2 56209  97.3060 352.6556 0007370 352.9389   7.1756 15.48060105165555
GHGSAT-C8               
1 56186U 23054J   26085.29638058  .00014913  00000+0  26306-3 0  9999
2 56186  97.3058 353.2261 0005897  32.4663 327.6951 15.50475714165582
SENTINEL-5P             
1 42969U 17064A   26085.30991388  .00000081  00000+0  59669-4 0  9997
2 42969  98.7904  28.0410 0001188  91.3449 268.7863 14.19503186437802
ENMAP                   
1 52159U 22033C   26085.26628356  .00000576  00000+0  93116-4 0  9992
2 52159  97.9769 168.6930 0001305 104.7619 255.3735 14.74987235214435
PRISMA                  
1 44072U 19015A   26085.32252595  .00000832  00000+0  10720-3 0  9992
2 44072  97.8683 161.3123 0001480  85.6561 274.4822 14.83661978379765
SENTINEL-2A             
1 40697U 15028A   26085.27768797 -.00000105  00000+0 -23306-4 0  9991
2 40697  98.5622 161.3271 0001294  97.3718 262.7612 14.30818941561874
SENTINEL-2B             
1 42063U 17013A   26085.27042043 -.00000046  00000+0 -97719-6 0  9990
2 42063  98.5676 161.2252 0001157  94.7536 265.3779 14.30813025472789
SENTINEL-2C             
1 60989U 24157A   26085.16557653  .00000128  00000+0  65439-4 0  9991
2 60989  98.5664 161.1420 0001060 115.3449 244.7844 14.30820199 81112
LANDSAT 8               
1 39084U 13008A   26085.27831285  .00000369  00000+0  91964-4 0  9993
2 39084  98.1889 156.7293 0001209  92.9494 267.1843 14.57125564685821
LANDSAT 9               
1 49260U 21088A   26085.17545486  .00000401  00000+0  99033-4 0  9993
2 49260  98.1910 156.6932 0001190  94.0524 266.0811 14.57113807238912
TANAGER-1               
1 60507U 24149AR  26084.25199388  .00014498  00000+0  32533-3 0  9997
2 60507  97.3755 177.8437 0007424 219.3324 140.7386 15.43467636 90085
